[{"OBJECT_NAME":"STARLINK-32716","OBJECT_ID":"2025-034C","EPOCH":"2026-03-09T21:54:44.424288","MEAN_MOTION":15.3019914,"ECCENTRICITY":0.00010393,"INCLINATION":53.1604,"RA_OF_ASC_NODE":256.9028,"ARG_OF_PERICENTER":354.0948,"MEAN_ANOMALY":6.0041,"EPHEMERIS_TYPE":0,"CLASSIFICATION_TYPE":"U","NORAD_CAT_ID":63031,"ELEMENT_SET_NO":999,"REV_AT_EPOCH":5912,"BSTAR":0.00084781218,"MEAN_MOTION_DOT":0.00024834,"MEAN_MOTION_DDOT":0},{"OBJECT_NAME":"FENGYUN 1C DEB","OBJECT_ID":"1999-025ETT","EPOCH":"2026-03-07T08:30:03.670560","MEAN_MOTION":15.28888299,"ECCENTRICITY":0.00158464,"INCLINATION":99.1103,"RA_OF_ASC_NODE":112.0072,"ARG_OF_PERICENTER":201.0032,"MEAN_ANOMALY":159.0553,"EPHEMERIS_TYPE":0,"CLASSIFICATION_TYPE":"U","NORAD_CAT_ID":38726,"ELEMENT_SET_NO":999,"REV_AT_EPOCH":71135,"BSTAR":0.013792546,"MEAN_MOTION_DOT":0.00409659,"MEAN_MOTION_DDOT":0}]
